[{"OBJECT_NAME":"ONEWEB-0264","OBJECT_ID":"2021-060R","EPOCH":"2026-03-09T22:22:27.938784","MEAN_MOTION":13.16592235,"ECCENTRICITY":0.00015341,"INCLINATION":87.9003,"RA_OF_ASC_NODE":248.5268,"ARG_OF_PERICENTER":102.9843,"MEAN_ANOMALY":257.146,"EPHEMERIS_TYPE":0,"CLASSIFICATION_TYPE":"U","NORAD_CAT_ID":48982,"ELEMENT_SET_NO":999,"REV_AT_EPOCH":22653,"BSTAR":0.00012518342,"MEAN_MOTION_DOT":6.1e-7,"MEAN_MOTION_DDOT":0},{"OBJECT_NAME":"COSMOS 2251 DEB","OBJECT_ID":"1993-036JQ","EPOCH":"2026-03-09T12:12:50.299200","MEAN_MOTION":13.4928355,"ECCENTRICITY":0.04252435,"INCLINATION":73.8421,"RA_OF_ASC_NODE":102.3195,"ARG_OF_PERICENTER":236.6738,"MEAN_ANOMALY":119.2978,"EPHEMERIS_TYPE":0,"CLASSIFICATION_TYPE":"U","NORAD_CAT_ID":34053,"ELEMENT_SET_NO":999,"REV_AT_EPOCH":83854,"BSTAR":0.00060342766,"MEAN_MOTION_DOT":6.4e-6,"MEAN_MOTION_DDOT":0}]
